{
  "type": "FeatureCollection",
  "features": [
    {
      "type": "Feature",
      "properties": {
        "norad_id": 64902,
        "name": "CO3D 2",
        "group": "resource",
        "lat": 79.08863873196184,
        "lon": 11.49269459977262,
        "alt_km": 497.25193203863546,
        "timestamp": "2025-12-03T17:47:50.370222+00:00",
        "meta_object_name": "CO3D 2",
        "meta_object_id": "2025-156D",
        "meta_epoch": "2025-12-03T11:07:08.765760",
        "meta_mean_motion": 15.20218594,
        "meta_eccentricity": 9.87e-05,
        "meta_inclination": 97.4353,
        "meta_ra_of_asc_node": 53.8628,
        "meta_arg_of_pericenter": 114.8163,
        "meta_mean_anomaly": 245.3175,
        "meta_ephemeris_type": 0,
        "meta_classification_type": "U",
        "meta_norad_cat_id": 64902,
        "meta_element_set_no": 999,
        "meta_rev_at_epoch": 1979,
        "meta_bstar": 0.000399,
        "meta_mean_motion_dot": 8.584e-05,
        "meta_mean_motion_ddot": 0,
        "tle_line1": "1 64902U 25156D   25337.46329590  .00008584  00000+0  39900-3 0  9996",
        "tle_line2": "2 64902  97.4353  53.8628 0000987 114.8163 245.3175 15.20218594 19794"
      },
      "geometry": {
        "type": "Point",
        "coordinates": [
          11.49269459977262,
          79.08863873196184
        ]
      }
    },
    {
      "type": "Feature",
      "properties": {
        "norad_id": 64903,
        "name": "CO3D 1",
        "group": "resource",
        "lat": 78.42490262784685,
        "lon": 14.522687032213764,
        "alt_km": 497.352688220054,
        "timestamp": "2025-12-03T17:47:50.370232+00:00",
        "meta_object_name": "CO3D 1",
        "meta_object_id": "2025-156E",
        "meta_epoch": "2025-12-03T11:07:22.417824",
        "meta_mean_motion": 15.20196589,
        "meta_eccentricity": 9.92e-05,
        "meta_inclination": 97.4353,
        "meta_ra_of_asc_node": 53.8628,
        "meta_arg_of_pericenter": 114.4623,
        "meta_mean_anomaly": 245.6716,
        "meta_ephemeris_type": 0,
        "meta_classification_type": "U",
        "meta_norad_cat_id": 64903,
        "meta_element_set_no": 999,
        "meta_rev_at_epoch": 1979,
        "meta_bstar": 0.00032332,
        "meta_mean_motion_dot": 6.937e-05,
        "meta_mean_motion_ddot": 0,
        "tle_line1": "1 64903U 25156E   25337.46345391  .00006937  00000+0  32332-3 0  9996",
        "tle_line2": "2 64903  97.4353  53.8628 0000992 114.4623 245.6716 15.20196589 19791"
      },
      "geometry": {
        "type": "Point",
        "coordinates": [
          14.522687032213764,
          78.42490262784685
        ]
      }
    },
    {
      "type": "Feature",
      "properties": {
        "norad_id": 66514,
        "name": "SENTINEL-6B",
        "group": "resource",
        "lat": -62.388593204915665,
        "lon": 122.98331542310477,
        "alt_km": 1315.6794653665365,
        "timestamp": "2025-12-03T17:47:50.370243+00:00",
        "meta_object_name": "SENTINEL-6B",
        "meta_object_id": "2025-264A",
        "meta_epoch": "2025-12-03T12:35:26.831040",
        "meta_mean_motion": 12.85877502,
        "meta_eccentricity": 0.0011536,
        "meta_inclination": 66.0389,
        "meta_ra_of_asc_node": 181.6659,
        "meta_arg_of_pericenter": 268.6185,
        "meta_mean_anomaly": 91.3511,
        "meta_ephemeris_type": 0,
        "meta_classification_type": "U",
        "meta_norad_cat_id": 66514,
        "meta_element_set_no": 999,
        "meta_rev_at_epoch": 210,
        "meta_bstar": 0.00029302,
        "meta_mean_motion_dot": 1e-07,
        "meta_mean_motion_ddot": 0,
        "tle_line1": "1 66514U 25264A   25337.52461610  .00000010  00000+0  29302-3 0  9995",
        "tle_line2": "2 66514  66.0389 181.6659 0011536 268.6185  91.3511 12.85877502  2102"
      },
      "geometry": {
        "type": "Point",
        "coordinates": [
          122.98331542310477,
          -62.388593204915665
        ]
      }
    }
  ]
}